NORAD_CAT_ID,OBJECT_NAME,OBJECT_TYPE,EPOCH,MEAN_MOTION,ECCENTRICITY,INCLINATION,RA_OF_ASC_NODE,ARG_OF_PERICENTER,MEAN_ANOMALY,BSTAR,MEAN_MOTION_DOT,MEAN_MOTION_DDOT,TLE_LINE0,TLE_LINE1,TLE_LINE2,SEMIMAJOR_AXIS,PERIOD,APOGEE,PERIGEE,DECAYED
53159.0,STARLINK-4111,PAYLOAD,2023-02-13 14:08:17,15.08869753,0.0001162,53.2168,152.4436,91.3934,268.7192,0.003108,0.00049564,0.0,0 STARLINK-4111,1 53159U 22083AD  23044.58909411  .00049564  00000-0  31080-2 0  9990,2 53159  53.2168 152.4436 0001162  91.3934 268.7192 15.08869753 32264,6917.789,95.436,540.458,538.851,0.0
53159.0,STARLINK-4111,PAYLOAD,2023-02-13 17:19:03,15.08883363,0.0001179,53.2168,151.8488,91.1375,268.9752,0.0030794,0.00049121,0.0,0 STARLINK-4111,1 53159U 22083AD  23044.72157097  .00049121  00000-0  30794-2 0  9991,2 53159  53.2168 151.8488 0001179  91.1375 268.9752 15.08883363 32918,6917.748,95.435,540.428,538.797,0.0
53159.0,STARLINK-4111,PAYLOAD,2023-02-13 23:40:37,15.08838748,0.0002473,53.2166,150.6594,86.9412,273.1863,0.0033034,0.00052678,0.0,0 STARLINK-4111,1 53159U 22083AD  23044.98653938  .00052678  00000-0  33034-2 0  9995,2 53159  53.2166 150.6594 0002473  86.9412 273.1863 15.08838748 32955,6917.884,95.438,541.46,538.038,0.0
53159.0,STARLINK-4111,PAYLOAD,2023-02-14 07:37:32,15.0884606,0.0001502,53.2172,149.1723,122.7445,237.3692,0.00071476,0.00011108,0.0,0 STARLINK-4111,1 53159U 22083AD  23045.31773451  .00011108  00000-0  71476-3 0  9992,2 53159  53.2172 149.1723 0001502 122.7445 237.3692 15.08846060 33001,6917.862,95.437,540.766,538.688,0.0
53159.0,STARLINK-4111,PAYLOAD,2023-02-14 13:59:04,15.08851031,0.0001283,53.2173,147.9841,121.1145,238.9973,0.001703,0.00026927,0.0,0 STARLINK-4111,1 53159U 22083AD  23045.58269550  .00026927  00000-0  17030-2 0  9991,2 53159  53.2173 147.9841 0001283 121.1145 238.9973 15.08851031 32412,6917.847,95.437,540.599,538.824,0.0
53159.0,STARLINK-4111,PAYLOAD,2023-02-15 10:39:05,15.0885254,0.0001735,53.2191,144.1178,83.7197,276.3992,0.0010404,0.00016314,0.0,0 STARLINK-4111,1 53159U 22083AD  23046.44381732  .00016314  00000-0  10404-2 0  9991,2 53159  53.2191 144.1178 0001735  83.7197 276.3992 15.08852540 33173,6917.842,95.437,540.907,538.507,0.0
53159.0,STARLINK-4111,PAYLOAD,2023-02-15 12:14:28,15.08851623,0.0001497,53.2192,143.8198,86.4978,273.6185,0.000747,0.00011624,0.0,0 STARLINK-4111,1 53159U 22083AD  23046.51005637  .00011624  00000-0  74700-3 0  9995,2 53159  53.2192 143.8198 0001497  86.4978 273.6185 15.08851623 32550,6917.845,95.437,540.745,538.674,0.0
53159.0,STARLINK-4111,PAYLOAD,2023-02-15 15:25:14,15.08863688,0.0001493,53.2165,143.2239,71.8893,288.2262,0.0011001,0.00017275,0.0,0 STARLINK-4111,1 53159U 22083AD  23046.64253379  .00017275  00000-0  11001-2 0  9999,2 53159  53.2165 143.2239 0001493  71.8893 288.2262 15.08863688 32574,6917.808,95.436,540.706,538.64,0.0
53159.0,STARLINK-4111,PAYLOAD,2023-02-16 12:05:14,15.08878957,7.89e-05,53.2166,139.3603,91.1263,268.982,0.0017952,0.00028429,0.0,0 STARLINK-4111,1 53159U 22083AD  23047.50364173  .00028429  00000-0  17952-2 0  9994,2 53159  53.2166 139.3603 0000789  91.1263 268.9820 15.08878957 33334,6917.761,95.435,540.172,539.081,0.0
53159.0,STARLINK-4111,PAYLOAD,2023-02-16 15:16:00,15.0888415,9.06e-05,53.2171,138.7658,83.7327,276.3768,0.0016716,0.00026448,0.0,0 STARLINK-4111,1 53159U 22083AD  23047.63611849  .00026448  00000-0  16716-2 0  9999,2 53159  53.2171 138.7658 0000906  83.7327 276.3768 15.08884150 32720,6917.745,95.435,540.237,538.984,0.0
53159.0,STARLINK-4111,PAYLOAD,2023-02-17 05:34:29,15.0884078,0.0001252,53.2168,136.0876,117.5382,242.5737,0.0012987,0.00020442,0.0,0 STARLINK-4111,1 53159U 22083AD  23048.23228801  .00020442  00000-0  12987-2 0  9992,2 53159  53.2168 136.0876 0001252 117.5382 242.5737 15.08840780 33443,6917.878,95.438,540.609,538.877,0.0
53159.0,STARLINK-4111,PAYLOAD,2023-02-17 11:56:02,15.0881821,1.54e-05,53.2171,134.8983,2.3528,357.7465,0.0013791,0.00021716,0.0,0 STARLINK-4111,1 53159U 22083AD  23048.49725291  .00021716  00000-0  13791-2 0  9994,2 53159  53.2171 134.8983 0000154   2.3528 357.7465 15.08818210 33489,6917.947,95.439,539.919,539.705,0.0
53159.0,STARLINK-4111,PAYLOAD,2023-02-18 11:46:51,15.08823067,8.88e-05,53.2176,130.44,94.9586,265.1508,0.0011623,0.0001825,0.0,0 STARLINK-4111,1 53159U 22083AD  23049.49087227  .00018250  00000-0  11623-2 0  9996,2 53159  53.2176 130.4400 0000888  94.9586 265.1508 15.08823067 33638,6917.932,95.439,540.411,539.183,0.0
53159.0,STARLINK-4111,PAYLOAD,2023-02-19 11:37:37,15.08863625,0.00015,53.2177,125.9788,99.4016,260.7146,0.0011389,0.00017896,0.0,0 STARLINK-4111,1 53159U 22083AD  23050.48446721  .00017896  00000-0  11389-2 0  9999,2 53159  53.2177 125.9788 0001500  99.4016 260.7146 15.08863625 33157,6917.808,95.436,540.711,538.636,0.0
53159.0,STARLINK-4111,PAYLOAD,2023-02-20 05:06:52,15.08863996,0.0001556,53.2178,122.7084,93.5635,266.5535,0.00071948,0.00011189,0.0,0 STARLINK-4111,1 53159U 22083AD  23051.21310249  .00011189  00000-0  71948-3 0  9993,2 53159  53.2178 122.7084 0001556  93.5635 266.5535 15.08863996 33893,6917.807,95.436,540.748,538.596,0.0
53159.0,STARLINK-4111,PAYLOAD,2023-02-20 11:28:24,15.0885765,0.0001376,53.2173,121.5196,89.8361,270.2789,0.0004295,6.557e-05,0.0,0 STARLINK-4111,1 53159U 22083AD  23051.47806060  .00006557  00000-0  42950-3 0  9996,2 53159  53.2173 121.5196 0001376  89.8361 270.2789 15.08857650 33931,6917.826,95.436,540.643,538.74,0.0
53159.0,STARLINK-4111,PAYLOAD,2023-02-20 13:03:47,15.088597,0.0001385,53.2175,121.2224,90.8915,269.2235,0.00037985,5.766e-05,0.0,0 STARLINK-4111,1 53159U 22083AD  23051.54429962  .00005766  00000-0  37985-3 0  9999,2 53159  53.2175 121.2224 0001385  90.8915 269.2235 15.08859700 33313,6917.82,95.436,540.643,538.727,0.0
53159.0,STARLINK-4111,PAYLOAD,2023-02-21 03:22:15,15.08845409,0.0001483,53.2195,118.5468,93.3221,266.794,0.0001362,1.881e-05,0.0,0 STARLINK-4111,1 53159U 22083AD  23052.14046085  .00001881  00000-0  13620-3 0  9991,2 53159  53.2195 118.5468 0001483  93.3221 266.7940 15.08845409 34037,6917.864,95.437,540.755,538.703,0.0
53159.0,STARLINK-4111,PAYLOAD,2023-02-21 11:19:11,15.08852952,0.000141,53.2178,117.0595,97.0278,263.0875,0.00023827,3.507e-05,0.0,0 STARLINK-4111,1 53159U 22083AD  23052.47165670  .00003507  00000-0  23827-3 0  9996,2 53159  53.2178 117.0595 0001410  97.0278 263.0875 15.08852952 33459,6917.841,95.437,540.681,538.73,0.0
53159.0,STARLINK-4111,PAYLOAD,2023-02-21 20:51:30,15.08851226,0.0001318,53.2173,115.2753,93.199,266.9153,0.00048204,7.394e-05,0.0,0 STARLINK-4111,1 53159U 22083AD  23052.86909754  .00007394  00000-0  48204-3 0  9992,2 53159  53.2173 115.2753 0001318  93.1990 266.9153 15.08851226 33516,6917.846,95.437,540.623,538.799,0.0
53159.0,STARLINK-4111,PAYLOAD,2023-02-22 09:34:35,15.08839722,0.0001579,53.2191,112.8968,101.636,258.4809,-1.8588e-05,-5.84e-06,0.0,0 STARLINK-4111,1 53159U 22083AD  23053.39902016 -.00000584  00000-0 -18588-4 0  9994,2 53159  53.2191 112.8968 0001579 101.6360 258.4809 15.08839722 34222,6917.881,95.438,540.839,538.654,0.0
53159.0,STARLINK-4111,PAYLOAD,2023-02-22 20:42:17,15.08840075,0.0001334,53.2174,110.814,89.1987,270.9158,-3.3239e-05,-8.17e-06,0.0,0 STARLINK-4111,1 53159U 22083AD  23053.86270038 -.00000817  00000-0 -33239-4 0  9997,2 53159  53.2174 110.8140 0001334  89.1987 270.9158 15.08840075 33663,6917.88,95.438,540.668,538.822,0.0
53159.0,STARLINK-4111,PAYLOAD,2023-02-23 09:25:22,15.08834265,0.0001333,53.2183,108.4359,92.71,267.4045,-2.0143e-05,-6.08e-06,0.0,0 STARLINK-4111,1 53159U 22083AD  23054.39262633 -.00000608  00000-0 -20143-4 0  9996,2 53159  53.2183 108.4359 0001333  92.7100 267.4045 15.08834265 34373,6917.898,95.438,540.685,538.841,0.0
53159.0,STARLINK-4111,PAYLOAD,2023-02-23 12:36:08,15.08839651,0.0001479,53.2186,107.8405,98.9627,261.1533,5.4674e-05,5.82e-06,0.0,0 STARLINK-4111,1 53159U 22083AD  23054.52510360  .00000582  00000-0  54674-4 0  9999,2 53159  53.2186 107.8405 0001479  98.9627 261.1533 15.08839651 33763,6917.881,95.438,540.77,538.723,0.0
53159.0,STARLINK-4111,PAYLOAD,2023-02-23 20:33:04,15.08841975,0.000127,53.2175,106.352,86.1571,273.9567,7.2948e-05,8.73e-06,0.0,0 STARLINK-4111,1 53159U 22083AD  23054.85630291  .00000873  00000-0  72948-4 0  9998,2 53159  53.2175 106.3520 0001270  86.1571 273.9567 15.08841975 33815,6917.874,95.437,540.618,538.861,0.0
53159.0,STARLINK-4111,PAYLOAD,2023-02-24 12:26:55,15.08848148,0.0001345,53.2167,103.379,85.6263,274.4883,0.0002299,3.374e-05,0.0,0 STARLINK-4111,1 53159U 22083AD  23055.51870093  .00003374  00000-0  22990-3 0  9998,2 53159  53.2167 103.3790 0001345  85.6263 274.4883 15.08848148 34544,6917.855,95.437,540.651,538.79,0.0
53159.0,STARLINK-4111,PAYLOAD,2023-02-24 20:23:51,15.08837987,0.0001386,53.2187,101.8933,88.8139,271.3012,0.00010746,1.423e-05,0.0,0 STARLINK-4111,1 53159U 22083AD  23055.84990688  .00001423  00000-0  10746-3 0  9996,2 53159  53.2187 101.8933 0001386  88.8139 271.3012 15.08837987 34594,6917.887,95.438,540.71,538.793,0.0
53159.0,STARLINK-4111,PAYLOAD,2023-02-25 02:45:25,15.08830202,0.0001651,53.2184,100.7039,91.4796,268.6385,5.831e-05,6.4e-06,0.0,0 STARLINK-4111,1 53159U 22083AD  23056.11487387  .00000640  00000-0  58310-4 0  9994,2 53159  53.2184 100.7039 0001651  91.4796 268.6385 15.08830202 34630,6917.91,95.438,540.917,538.633,0.0
53159.0,STARLINK-4111,PAYLOAD,2023-02-25 12:17:43,15.08832921,0.0001481,53.2166,98.9179,98.2761,261.8399,2.2824e-05,7.5e-07,0.0,0 STARLINK-4111,1 53159U 22083AD  23056.51231369  .00000075  00000-0  22824-4 0  9998,2 53159  53.2166  98.9179 0001481  98.2761 261.8399 15.08832921 34068,6917.902,95.438,540.792,538.742,0.0
53159.0,STARLINK-4111,PAYLOAD,2023-02-25 20:14:39,15.0883222,0.0001325,53.2163,97.433,93.1503,266.9641,-1.888e-05,-5.88e-06,0.0,0 STARLINK-4111,1 53159U 22083AD  23056.84351556 -.00000588  00000-0 -18880-4 0  9993,2 53159  53.2163  97.4330 0001325  93.1503 266.9641 15.08832220 34117,6917.904,95.438,540.686,538.853,0.0
